1 54694U 22167N   25224.16271563  .00011222  00000-0  41574-3 0  9994
2 54694  97.6553  18.0627 0007604 143.1051 217.0712 15.27792705148155
1 54694U 22167N   25224.42469833  .00011311  00000-0  41893-3 0  9995
2 54694  97.6553  18.3316 0007623 142.2397 217.9378 15.27799276148198
1 54694U 22167N   25224.49019400  .00010983  00000-0  40688-3 0  9998
2 54694  97.6553  18.3989 0007624 142.0274 218.1503 15.27800062148208
1 54694U 22167N   25224.55568951  .00011030  00000-0  40859-3 0  9999
2 54694  97.6554  18.4662 0007629 141.8500 218.3279 15.27801318148210
1 54694U 22167N   25224.75217562  .00012004  00000-0  44429-3 0  9999
2 54694  97.6554  18.6679 0007630 141.2345 218.9443 15.27806506148249
1 54694U 22167N   25224.88316577  .00010686  00000-0  39588-3 0  9993
2 54694  97.6554  18.8024 0007641 140.8341 219.3452 15.27808717148261
1 54694U 22167N   25225.21064069  .00012386  00000-0  45817-3 0  9998
2 54694  97.6555  19.1387 0007657 139.8153 220.3653 15.27817672148315
1 54694U 22167N   25225.53811405  .00010154  00000-0  37615-3 0  9995
2 54694  97.6555  19.4749 0007663 138.8290 221.3528 15.27822434148367
1 54694U 22167N   25225.60360855  .00010296  00000-0  38138-3 0  9999
2 54694  97.6555  19.5421 0007664 138.6486 221.5334 15.27823771148374
1 54694U 22167N   25225.86558589  .00011535  00000-0  42675-3 0  9998
2 54694  97.6556  19.8111 0007666 137.8817 222.3012 15.27830957148416
1 54694U 22167N   25225.93108005  .00011488  00000-0  42502-3 0  9996
2 54694  97.6556  19.8783 0007670 137.6802 222.5030 15.27832453148424
1 54694U 22167N   25226.19305642  .00011636  00000-0  43035-3 0  9998
2 54694  97.6556  20.1473 0007679 136.9045 223.2796 15.27837718148465
1 54694U 22167N   25226.58601857  .00011661  00000-0  43118-3 0  9998
2 54694  97.6556  20.5508 0007692 135.7227 224.4628 15.27846794148520
1 54694U 22167N   25226.71700552  .00011694  00000-0  43233-3 0  9999
2 54694  97.6556  20.6853 0007689 135.3422 224.8438 15.27849584148548
1 54694U 22167N   25226.84799216  .00011355  00000-0  41986-3 0  9995
2 54694  97.6557  20.8198 0007681 134.9097 225.2766 15.27852533148567
1 54694U 22167N   25226.91348535  .00011395  00000-0  42133-3 0  9996
2 54694  97.6557  20.8871 0007686 134.6900 225.4966 15.27854221148571
1 54694U 22167N   25227.17545762  .00011130  00000-0  41154-3 0  9995
2 54694  97.6557  21.1561 0007701 133.8956 226.2920 15.27859670148618
1 54694U 22167N   25227.50292143  .00010950  00000-0  40484-3 0  9998
2 54694  97.6556  21.4924 0007706 132.7664 227.4224 15.27867463148666
1 54694U 22167N   25227.56841402  .00010885  00000-0  40242-3 0  9991
2 54694  97.6556  21.5596 0007709 132.5680 227.6210 15.27868676148676
1 54694U 22167N   25227.89587598  .00010371  00000-0  38351-3 0  9998
2 54694  97.6556  21.8957 0007731 131.7558 228.4343 15.27875707148725
1 54694U 22167N   25228.41981232  .00009136  00000-0  33812-3 0  9994
2 54694  97.6555  22.4336 0007772 130.0954 230.0967 15.27885487148805
1 54694U 22167N   25228.55079599  .00009404  00000-0  34795-3 0  9992
2 54694  97.6554  22.5681 0007756 129.8135 230.3787 15.27887580148828
1 54694U 22167N   25228.61628772  .00009286  00000-0  34360-3 0  9998
2 54694  97.6554  22.6353 0007758 129.6135 230.5790 15.27888666148838
1 54694U 22167N   25228.74727096  .00009358  00000-0  34620-3 0  9990
2 54694  97.6554  22.7697 0007758 129.2040 230.9888 15.27891372148853
1 54694U 22167N   25228.81276251  .00009304  00000-0  34420-3 0  9999
2 54694  97.6554  22.8370 0007758 128.9991 231.1940 15.27892683148862
1 54694U 22167N   25229.20571096  .00008950  00000-0  33119-3 0  9998
2 54694  97.6553  23.2404 0007780 127.7383 232.4562 15.27899208148922
1 54694U 22167N   25229.53316664  .00008991  00000-0  33261-3 0  9995
2 54694  97.6552  23.5766 0007794 126.7526 233.4429 15.27905331148971
1 54694U 22167N   25229.59865763  .00009059  00000-0  33511-3 0  9994
2 54694  97.6552  23.6439 0007798 126.5545 233.6412 15.27906544148984
1 54694U 22167N   25229.86062093  .00009565  00000-0  35357-3 0  9991
2 54694  97.6552  23.9129 0007798 125.6776 234.5190 15.27912229149025
1 54694U 22167N   25229.92611164  .00009618  00000-0  35550-3 0  9991
2 54694  97.6552  23.9801 0007803 125.4667 234.7301 15.27913492149036
1 54694U 22167N   25230.18807412  .00008948  00000-0  33092-3 0  9998
2 54694  97.6551  24.2490 0007814 124.7331 235.4644 15.27916673149071
1 54694U 22167N   25230.45003578  .00009078  00000-0  33565-3 0  9999
2 54694  97.6551  24.5180 0007829 124.0009 236.1974 15.27921646149116
1 54694U 22167N   25230.58101626  .00009329  00000-0  34480-3 0  9992
2 54694  97.6551  24.6525 0007841 123.6441 236.5546 15.27924253149137
1 54694U 22167N   25230.84297624  .00010440  00000-0  38537-3 0  9998
2 54694  97.6550  24.9214 0007838 122.8451 237.3543 15.27931210149173
1 54694U 22167N   25230.90846614  .00010527  00000-0  38856-3 0  9994
2 54694  97.6550  24.9886 0007839 122.6575 237.5421 15.27932621149189
1 54694U 22167N   25231.17042524  .00009610  00000-0  35494-3 0  9998
2 54694  97.6550  25.2576 0007849 121.8855 238.3148 15.27936028149227
1 54694U 22167N   25231.49787277  .00010098  00000-0  37274-3 0  9994
2 54694  97.6550  25.5937 0007860 120.9410 239.2602 15.27943375149274
1 54694U 22167N   25231.56336209  .00010232  00000-0  37761-3 0  9998
2 54694  97.6550  25.6610 0007862 120.7470 239.4544 15.27944852149288
1 54694U 22167N   25231.82531848  .00011461  00000-0  42245-3 0  9991
2 54694  97.6550  25.9298 0007857 119.8921 240.3099 15.27952452149323
1 54694U 22167N   25231.89080756  .00011605  00000-0  42770-3 0  9998
2 54694  97.6550  25.9971 0007871 119.6381 240.5643 15.27953711149332
1 54694U 22167N   25232.34922864  .00011416  00000-0  42067-3 0  9993
2 54694  97.6550  26.4678 0007889 118.2283 241.9753 15.27963798149408
1 54694U 22167N   25232.48020548  .00010513  00000-0  38764-3 0  9992
2 54694  97.6550  26.6022 0007890 117.8715 242.3324 15.27965778149421
1 54694U 22167N   25232.54569390  .00010316  00000-0  38044-3 0  9994
2 54694  97.6550  26.6695 0007887 117.6823 242.5217 15.27966677149434
1 54694U 22167N   25232.80764698  .00009927  00000-0  36616-3 0  9990
2 54694  97.6551  26.9385 0007879 116.9906 243.2138 15.27971411149475
1 54694U 22167N   25234.57580814  .00008845  00000-0  32629-3 0  9990
2 54694  97.6556  28.7541 0007918 111.7255 248.4828 15.28003401149747
1 54694U 22167N   25235.36164537  .00009295  00000-0  34257-3 0  9997
2 54694  97.6559  29.5610 0007927 109.5031 250.7065 15.28018716149860
1 54694U 22167N   25235.95101862  .00008760  00000-0  32295-3 0  9990
2 54694  97.6562  30.1664 0007925 107.6573 252.5532 15.28028708149950
1 54694U 22167N   25236.67135815  .00008921  00000-0  32868-3 0  9990
2 54694  97.6566  30.9064 0007921 105.4601 254.7513 15.28041748150066
1 54694U 22167N   25236.93329814  .00009586  00000-0  35288-3 0  9990
2 54694  97.6567  31.1756 0007920 104.5851 255.6267 15.28047707150106
1 54694U 22167N   25237.65362872  .00010182  00000-0  37444-3 0  9991
2 54694  97.6570  31.9155 0007923 102.4494 257.7632 15.28061812150218
1 54694U 22167N   25237.98104906  .00011742  00000-0  43118-3 0  9997
2 54694  97.6571  32.2518 0007901 101.4890 258.7236 15.28070382150269
1 54694U 22167N   25238.63588463  .00012737  00000-0  46716-3 0  9996
2 54694  97.6574  32.9246 0007918  99.5410 260.6723 15.28086672150363
1 54694U 22167N   25238.96329956  .00013012  00000-0  47706-3 0  9999
2 54694  97.6575  33.2610 0007920  98.4765 261.7372 15.28096005150416
1 54694U 22167N   25239.29071258  .00013900  00000-0  50922-3 0  9995
2 54694  97.6575  33.5974 0007928  97.5397 262.6742 15.28105520150460
1 54694U 22167N   25239.61812370  .00012991  00000-0  47604-3 0  9991
2 54694  97.6576  33.9339 0007917  96.5274 263.6866 15.28113029150518
1 54694U 22167N   25239.94553282  .00013997  00000-0  51245-3 0  9994
2 54694  97.6577  34.2703 0007913  95.4361 264.7780 15.28123505150561
1 54694U 22167N   25240.60034499  .00014345  00000-0  52481-3 0  9994
2 54694  97.6577  34.9431 0007889  93.4355 266.7786 15.28142056150660
1 54694U 22167N   25240.99322839  .00015653  00000-0  57207-3 0  9998
2 54694  97.6578  35.3468 0007868  92.1158 268.0982 15.28154895150724
1 54694U 22167N   25241.32062850  .00015771  00000-0  57617-3 0  9996
2 54694  97.6577  35.6833 0007869  91.3146 268.8995 15.28165331150775
1 54694U 22167N   25241.97542189  .00015536  00000-0  56731-3 0  9990
2 54694  97.6577  36.3561 0007859  89.2319 270.9821 15.28186316150877
1 54694U 22167N   25242.30281498  .00016690  00000-0  60891-3 0  9995
2 54694  97.6577  36.6925 0007863  88.3151 271.8988 15.28198553150929
1 54694U 22167N   25242.95759355  .00017904  00000-0  65239-3 0  9998
2 54694  97.6577  37.3653 0007848  86.1152 274.0984 15.28223027151023
1 54694U 22167N   25243.35045640  .00016855  00000-0  61421-3 0  9991
2 54694  97.6576  37.7690 0007851  85.0169 275.1966 15.28235180151088
1 54694U 22167N   25243.67783936  .00017764  00000-0  64686-3 0  9999
2 54694  97.6576  38.1054 0007835  83.9374 276.2758 15.28246732151136
1 54694U 22167N   25244.00521979  .00018724  00000-0  68134-3 0  9993
2 54694  97.6575  38.4418 0007819  82.9178 277.2950 15.28259465151182
1 54694U 22167N   25244.33259788  .00017496  00000-0  63673-3 0  9993
2 54694  97.6575  38.7782 0007803  81.9787 278.2337 15.28269368151236
1 54694U 22167N   25244.59449875  .00017584  00000-0  63976-3 0  9993
2 54694  97.6575  39.0474 0007784  81.0172 279.1947 15.28277859151270
1 54694U 22167N   25244.98734708  .00020333  00000-0  73870-3 0  9998
2 54694  97.6574  39.4512 0007761  79.5761 280.6353 15.28294332151337
1 54694U 22167N   25245.31471699  .00024172  00000-0  87675-3 0  9996
2 54694  97.6573  39.7874 0007762  78.6920 281.5191 15.28311385151381
1 54694U 22167N   25245.64208442  .00024290  00000-0  88070-3 0  9997
2 54694  97.6574  40.1236 0007747  77.7619 282.4488 15.28322577151438
1 54694U 22167N   25245.96944809  .00023654  00000-0  85735-3 0  9994
2 54694  97.6574  40.4601 0007779  76.8005 283.4102 15.28338510151484
